FLOCK 4BE-14            
1 60517U 24149BB  26176.21898906  .00020305  00000+0  49011-3 0  9991
2 60517  97.3696 260.0555 0003441 249.3364 110.7514 15.41224357103565
FLOCK 4BE-1             
1 60518U 24149BC  26176.81023330  .00022008  00000+0  50271-3 0  9991
2 60518  97.3783 261.9606 0003374 246.6467 113.4426 15.42869063103707
FLOCK 4BE-28            
1 60519U 24149BD  26176.68200507  .00022200  00000+0  46903-3 0  9991
2 60519  97.3748 262.5812 0003328 240.6336 119.4581 15.45185416103752
IPERDRONE.0             
1 60520U 24149BE  26176.79842911  .00096651  00000+0  87037-3 0  9990
2 60520  97.3778 270.4420 0004088 205.8768 154.2289 15.67887480104269
TRANSPORTER-11 OBJECT BF
1 60521U 24149BF  26176.51718948  .00371911  52728-4  13141-2 0  9991
2 60521  97.3761 273.1261 0007144 230.3122 129.7521 15.89014449104401
CONNECTA IOT-2          
1 60522U 24149BG  26176.71570258  .00004973  00000+0  20794-3 0  9999
2 60522  97.3842 254.7321 0004909 301.0130  59.0625 15.24040576103199
CONNECTA IOT-4          
1 60524U 24149BJ  26176.70677689  .00025755  00000+0  59602-3 0  9997
2 60524  97.3801 261.1785 0004409 245.7261 114.3526 15.42441978103642
ORESAT0.5               
1 60525U 24149BK  26176.21302297  .00023149  00000+0  48602-3 0  9997
2 60525  97.3723 262.3369 0004531 235.6724 124.4097 15.45356644103716
DEIMOS                  
1 60526U 24149BL  26176.70323674  .00023137  00000+0  49999-3 0  9991
2 60526  97.3784 262.9706 0004415 241.5244 118.5560 15.44506121103769
CUAVA-2                 
1 60527U 24149BM  26176.68136398  .00014805  00000+0  42016-3 0  9999
2 60527  97.3731 258.2153 0005366 256.0022 104.0626 15.36298291103475
ERNST                   
1 60528U 24149BN  26176.49066391  .00017042  00000+0  43708-3 0  9999
2 60528  97.3812 260.2730 0004521 257.6909 102.3831 15.39408238103558
TORO                    
1 60530U 24149BQ  26176.73187265  .00001641  00000+0  14970-3 0  9990
2 60530  97.6781 251.2403 0001103  89.5988 270.5360 14.96448963101237
HYPSO-2                 
1 60531U 24149BR  26176.67941213  .00003006  00000+0  25406-3 0  9998
2 60531  97.6811 252.8154 0000828 127.2915 232.8383 14.98824801101322
LEMU NGE                
1 60532U 24149BS  26176.68561352  .00002437  00000+0  22812-3 0  9997
2 60532  97.6842 251.4735 0001622  59.0680 301.0699 14.94985450101223
LEMUR-2-STELLA          
1 60533U 24149BT  26176.48719389  .00013431  00000+0  78588-3 0  9998
2 60533  97.6740 258.9786 0001501  96.5927 263.5474 15.11970744101756
SATELIOT_2              
1 60534U 24149BU  26176.71936891  .00001310  00000+0  12073-3 0  9994
2 60534  97.6830 251.5200 0001819  83.8552 276.2876 14.96390249101241
NIGHTJAR                
1 60535U 24149BV  26176.66957135  .00003281  00000+0  27520-3 0  9995
2 60535  97.6832 253.2577 0000835 109.6387 250.4927 14.99055873144141
LEMUR-2-MARHISYAM       
1 60536U 24149BW  26176.47054610  .00012380  00000+0  73609-3 0  9990
2 60536  97.6883 259.4196 0003342 103.3028 256.8575 15.11407654101732
SATELIOT_4              
1 60537U 24149BX  26176.72846508  .00001459  00000+0  13283-3 0  9991
2 60537  97.6732 251.0506 0002409  39.0955 321.0441 14.96692195101258
PICO-02A021             
1 60538U 24149BY  26176.68641851  .00005970  00000+0  44409-3 0  9997
2 60538  97.6767 255.4450 0004360   8.5117 351.6182 15.03331862101017
ICEYE-X43               
1 60539U 24149BZ  26176.70280179  .00004351  00000+0  35734-3 0  9996
2 60539  97.6812 253.5513 0008168  60.1843 300.0191 14.99676605101398
HAWK-10A                
1 60540U 24149CA  26176.79493323  .00001099  00000+0  10173-3 0  9990
2 60540  97.6892 252.5586 0004388  56.4111 303.7529 14.96536712101276
UMBRA-09                
1 60541U 24149CB  26176.83365594  .00022058  00000+0  10767-2 0  9990
2 60541  97.6977 264.1878 0001060 245.0615 115.0509 15.18295001102038
QPS-SAR-8 (AMATERU-IV)  
1 60542U 24149CC  26176.70870679  .00007034  00000+0  51041-3 0  9990
2 60542  97.6657 255.7865 0004224  89.2944 270.8766 15.04206880101557
ARCTIC WEATHER SATELLITE
1 60543U 24149CD  26176.68363867  .00000853  00000+0  94480-4 0  9991
2 60543  97.6800 246.9064 0003671  88.0600 272.1039 14.89794757100567
CAPELLA-15 (ACADIA-5)   
1 60544U 24149CE  26175.16138169  .00003965  00000+0  39255-3 0  9994
2 60544  97.6776 247.8919 0004851  59.7072 300.4627 14.92400032100896
HAWK-10B                
1 60545U 24149CF  26176.79478979  .00001162  00000+0  10723-3 0  9997
2 60545  97.6810 251.9049 0006490  69.7197 290.4721 14.96535697101272
ICEYE-X39               
1 60546U 24149CG  26176.68281360  .00003758  00000+0  30731-3 0  9996
2 60546  97.6761 253.5904 0006214  96.8853 263.3077 14.99943029101391
UMBRA-10                
1 60547U 24149CH  26176.83321468  .00019027  00000+0  92993-3 0  9992
2 60547  97.6981 264.2158 0000387 145.5626 214.5633 15.18285295102046
ICEYE-X33               
1 60548U 24149CJ  26176.70267671  .00005008  00000+0  39762-3 0  9993
2 60548  97.7308 255.7974 0001999  80.6273 279.5176 15.00933819101482
