OBJECT_NAME,OBJECT_ID,EPOCH,MEAN_MOTION,ECCENTRICITY,INCLINATION,RA_OF_ASC_NODE,ARG_OF_PERICENTER,MEAN_ANOMALY,EPHEMERIS_TYPE,CLASSIFICATION_TYPE,NORAD_CAT_ID,ELEMENT_SET_NO,REV_AT_EPOCH,BSTAR,MEAN_MOTION_DOT,MEAN_MOTION_DDOT
FLOCK 4BE-14,2024-149BB,2026-06-25T05:15:20.654784,15.41224357,.0003441,97.3696,260.0555,249.3364,110.7514,0,U,60517,999,10356,.49011E-3,.20305E-3,0
FLOCK 4BE-1,2024-149BC,2026-06-25T19:26:44.157120,15.42869063,.0003374,97.3783,261.9606,246.6467,113.4426,0,U,60518,999,10370,.50271E-3,.22008E-3,0
FLOCK 4BE-28,2024-149BD,2026-06-25T16:22:05.238048,15.45185416,.0003328,97.3748,262.5812,240.6336,119.4581,0,U,60519,999,10375,.46903E-3,.222E-3,0
IPERDRONE.0,2024-149BE,2026-06-25T19:09:44.275104,15.67887480,.0004088,97.3778,270.4420,205.8768,154.2289,0,U,60520,999,10426,.87037E-3,.96651E-3,0
TRANSPORTER-11 OBJECT BF,2024-149BF,2026-06-25T12:24:45.171072,15.89014449,.0007144,97.3761,273.1261,230.3122,129.7521,0,U,60521,999,10440,.13141E-2,.371911E-2,.52728E-4
CONNECTA IOT-2,2024-149BG,2026-06-25T17:10:36.702912,15.24040576,.0004909,97.3842,254.7321,301.0130,59.0625,0,U,60522,999,10319,.20794E-3,.4973E-4,0
CONNECTA IOT-4,2024-149BJ,2026-06-25T16:57:45.523296,15.42441978,.0004409,97.3801,261.1785,245.7261,114.3526,0,U,60524,999,10364,.59602E-3,.25755E-3,0
ORESAT0.5,2024-149BK,2026-06-25T05:06:45.184608,15.45356644,.0004531,97.3723,262.3369,235.6724,124.4097,0,U,60525,999,10371,.48602E-3,.23149E-3,0
DEIMOS,2024-149BL,2026-06-25T16:52:39.654336,15.44506121,.0004415,97.3784,262.9706,241.5244,118.5560,0,U,60526,999,10376,.49999E-3,.23137E-3,0
CUAVA-2,2024-149BM,2026-06-25T16:21:09.847872,15.36298291,.0005366,97.3731,258.2153,256.0022,104.0626,0,U,60527,999,10347,.42016E-3,.14805E-3,0
ERNST,2024-149BN,2026-06-25T11:46:33.361824,15.39408238,.0004521,97.3812,260.2730,257.6909,102.3831,0,U,60528,999,10355,.43708E-3,.17042E-3,0
TORO,2024-149BQ,2026-06-25T17:33:53.796960,14.96448963,.0001103,97.6781,251.2403,89.5988,270.5360,0,U,60530,999,10123,.1497E-3,.1641E-4,0
HYPSO-2,2024-149BR,2026-06-25T16:18:21.208032,14.98824801,.0000828,97.6811,252.8154,127.2915,232.8383,0,U,60531,999,10132,.25406E-3,.3006E-4,0
LEMU NGE,2024-149BS,2026-06-25T16:27:17.008128,14.94985450,.0001622,97.6842,251.4735,59.0680,301.0699,0,U,60532,999,10122,.22812E-3,.2437E-4,0
LEMUR-2-STELLA,2024-149BT,2026-06-25T11:41:33.552096,15.11970744,.0001501,97.6740,258.9786,96.5927,263.5474,0,U,60533,999,10175,.78588E-3,.13431E-3,0
SATELIOT_2,2024-149BU,2026-06-25T17:15:53.473824,14.96390249,.0001819,97.6830,251.5200,83.8552,276.2876,0,U,60534,999,10124,.12073E-3,.131E-4,0
NIGHTJAR,2024-149BV,2026-06-25T16:04:10.964640,14.99055873,.0000835,97.6832,253.2577,109.6387,250.4927,0,U,60535,999,14414,.2752E-3,.3281E-4,0
LEMUR-2-MARHISYAM,2024-149BW,2026-06-25T11:17:35.183040,15.11407654,.0003342,97.6883,259.4196,103.3028,256.8575,0,U,60536,999,10173,.73609E-3,.1238E-3,0
SATELIOT_4,2024-149BX,2026-06-25T17:28:59.382912,14.96692195,.0002409,97.6732,251.0506,39.0955,321.0441,0,U,60537,999,10125,.13283E-3,.1459E-4,0
PICO-02A021,2024-149BY,2026-06-25T16:28:26.559264,15.03331862,.000436,97.6767,255.4450,8.5117,351.6182,0,U,60538,999,10101,.44409E-3,.597E-4,0
ICEYE-X43,2024-149BZ,2026-06-25T16:52:02.074656,14.99676605,.0008168,97.6812,253.5513,60.1843,300.0191,0,U,60539,999,10139,.35734E-3,.4351E-4,0
HAWK-10A,2024-149CA,2026-06-25T19:04:42.231072,14.96536712,.0004388,97.6892,252.5586,56.4111,303.7529,0,U,60540,999,10127,.10173E-3,.1099E-4,0
UMBRA-09,2024-149CB,2026-06-25T20:00:27.873216,15.18295001,.000106,97.6977,264.1878,245.0615,115.0509,0,U,60541,999,10203,.10767E-2,.22058E-3,0
QPS-SAR-8 (AMATERU-IV),2024-149CC,2026-06-25T17:00:32.266656,15.04206880,.0004224,97.6657,255.7865,89.2944,270.8766,0,U,60542,999,10155,.51041E-3,.7034E-4,0
ARCTIC WEATHER SATELLITE,2024-149CD,2026-06-25T16:24:26.381088,14.89794757,.0003671,97.6800,246.9064,88.0600,272.1039,0,U,60543,999,10056,.9448E-4,.853E-5,0
CAPELLA-15 (ACADIA-5),2024-149CE,2026-06-24T03:52:23.378016,14.92400032,.00048513,97.6776,247.8919,59.7072,300.4627,0,U,60544,999,10089,.39255481E-3,.3965E-4,0
HAWK-10B,2024-149CF,2026-06-25T19:04:29.837856,14.96535697,.000649,97.6810,251.9049,69.7197,290.4721,0,U,60545,999,10127,.10723E-3,.1162E-4,0
ICEYE-X39,2024-149CG,2026-06-25T16:23:15.095040,14.99943029,.0006214,97.6761,253.5904,96.8853,263.3077,0,U,60546,999,10139,.30731E-3,.3758E-4,0
UMBRA-10,2024-149CH,2026-06-25T19:59:49.748352,15.18285295,.0000387,97.6981,264.2158,145.5626,214.5633,0,U,60547,999,10204,.92993E-3,.19027E-3,0
ICEYE-X33,2024-149CJ,2026-06-25T16:51:51.267744,15.00933819,.0001999,97.7308,255.7974,80.6273,279.5176,0,U,60548,999,10148,.39762E-3,.5008E-4,0
